ONEWEB-0643             
1 55807U 23029M   26162.58751093  .00000193  00000+0  48595-3 0  9992
2 55807  87.8952 290.8465 0001692 121.5939 238.5356 13.14502975158652
ONEWEB-0644             
1 55808U 23029N   26162.63469962  .00000001  00000+0 -30414-4 0  9991
2 55808  87.9164 306.0848 0001615 107.5837 252.5472 13.19724531158171
ONEWEB-0645             
1 55809U 23029P   26162.65681154  .00000106  00000+0  23248-3 0  9994
2 55809  87.9164 306.0774 0001388  94.3391 265.7901 13.19724208158179
ONEWEB-0646             
1 55810U 23029Q   26162.67419992  .00000056  00000+0  10674-3 0  9990
2 55810  87.9164 306.0741 0001668 105.6800 254.4517 13.19725229158168
ONEWEB-0648             
1 55811U 23029R   26162.63188713 -.00000264  00000+0 -74631-3 0  9997
2 55811  87.8960 290.8107 0000975 108.9181 251.2055 13.14502953158665
ONEWEB-0649             
1 55812U 23029S   26162.39619363  .00000055  00000+0  10585-3 0  9995
2 55812  87.9162 306.1271 0001571  97.9468 262.1843 13.19725198158166
ONEWEB-0650             
1 55813U 23029T   26162.69471115 -.00000016  00000+0 -71848-4 0  9999
2 55813  87.9165 306.0703 0001401 111.8788 248.2494 13.19724596158171
ONEWEB-0652             
1 55814U 23029U   26162.38450904 -.00000200  00000+0 -57294-3 0  9992
2 55814  87.8956 290.8675 0002050  99.5220 260.6141 13.14504663158602
ONEWEB-0653             
1 55815U 23029V   26162.59701198  .00000021  00000+0  21390-4 0  9998
2 55815  87.8961 290.8229 0001890  97.2267 262.9077 13.14503093158666
ONEWEB-0654             
1 55816U 23029W   26162.59225802  .00000119  00000+0  28600-3 0  9990
2 55816  87.8959 290.8200 0002174  93.6905 266.4473 13.14503583158683
ONEWEB-0656             
1 55817U 23029X   26162.67416617 -.00000006  00000+0 -46385-4 0  9994
2 55817  87.9197 275.5282 0002333  94.2236 265.9164 13.20772961160421
ONEWEB-0657             
1 55818U 23029Y   26162.68999222 -.00000027  00000+0 -99345-4 0  9991
2 55818  87.9165 306.0699 0002454 105.8502 254.2901 13.19724691158183
ONEWEB-0658             
1 55819U 23029Z   26162.68525134  .00000019  00000+0  14230-4 0  9998
2 55819  87.9172 306.0460 0001569 108.8205 251.3098 13.19724445158190
ONEWEB-0660             
1 55820U 23029AA  26162.72229382  .00000240  00000+0  61273-3 0  9995
2 55820  87.8968 290.7869 0001599  95.1101 265.0211 13.14503280158682
ONEWEB-0661             
1 55821U 23029AB  26162.60494961 -.00000116  00000+0 -34647-3 0  9999
2 55821  87.8951 290.8559 0001686  92.0314 268.1008 13.14502523158655
ONEWEB-0662             
1 55822U 23029AC  26162.63983522  .00000163  00000+0  40434-3 0  9990
2 55822  87.8946 290.8553 0001589  95.1001 265.0310 13.14502714158703
ONEWEB-0663             
1 55823U 23029AD  26162.78401794 -.00000054  00000+0 -16562-3 0  9999
2 55823  87.9193 275.5781 0001508 102.8480 257.2822 13.20868790160430
ONEWEB-0664             
1 55824U 23029AE  26162.58493280  .00000080  00000+0  16499-3 0  9995
2 55824  87.9178 275.5995 0001892  85.8341 274.3008 13.20770534160404
ONEWEB-0665             
1 55825U 23029AF  26162.60177907 -.00000091  00000+0 -28116-3 0  9997
2 55825  87.8951 290.8373 0001548  98.3025 261.8281 13.14503010158675
ONEWEB-0666             
1 55826U 23029AG  26162.72971659  .00000019  00000+0  15172-4 0  9994
2 55826  87.9181 275.5604 0002606 108.4124 251.7293 13.20770929160438
ONEWEB-0667             
1 55827U 23029AH  26162.80042978  .00000014  00000+0  24439-5 0  9999
2 55827  87.9195 275.5037 0001810  96.7850 263.3489 13.20771291160434
ONEWEB-0669             
1 55828U 23029AJ  26162.79537500 -.00000008  00000+0 -52632-4 0  9998
2 55828  87.9190 275.5163 0002339  89.2652 270.8749 13.20771840160436
ONEWEB-0670             
1 55829U 23029AK  26162.65569840  .00000251  00000+0  64368-3 0  9992
2 55829  87.8949 290.8441 0001732  87.3928 272.7400 13.14502723158705
ONEWEB-0671             
1 55830U 23029AL  26162.68050110  .00000027  00000+0  35248-4 0  9999
2 55830  87.9165 306.0731 0001698  94.6736 265.4591 13.19724134158177
ONEWEB-0672             
1 55831U 23029AM  26162.79031897  .00000012  00000+0 -23595-5 0  9991
2 55831  87.9191 275.5104 0002234 100.4674 259.6711 13.20771802160432
ONEWEB-0673             
1 55832U 23029AN  26162.65760649  .00000096  00000+0  20779-3 0  9991
2 55832  87.9171 306.0689 0001741  94.1708 265.9623 13.19727029158178
ONEWEB-0674             
1 55833U 23029AP  26162.62397538 -.00000069  00000+0 -21950-3 0  9996
2 55833  87.8948 290.8273 0001788  86.6774 273.4561 13.14504259158683
ONEWEB-0675             
1 55834U 23029AQ  26162.67261466  .00000051  00000+0  95550-4 0  9999
2 55834  87.9163 306.0761 0002046 105.0945 255.0414 13.19724464158196
ONEWEB-0720             
1 55835U 23029AR  26162.66471135  .00000092  00000+0  19668-3 0  9995
2 55835  87.9164 306.0779 0001554 101.1067 259.0240 13.19724617158115
ONEWEB-0537             
1 56046U 23043A   26162.72281941 -.00000018  00000+0 -80299-4 0  9996
2 56046  87.9100 229.8565 0002244 100.7141 259.4242 13.16594074158249
