OBJECT_NAME,OBJECT_ID,EPOCH,MEAN_MOTION,ECCENTRICITY,INCLINATION,RA_OF_ASC_NODE,ARG_OF_PERICENTER,MEAN_ANOMALY,EPHEMERIS_TYPE,CLASSIFICATION_TYPE,NORAD_CAT_ID,ELEMENT_SET_NO,REV_AT_EPOCH,BSTAR,MEAN_MOTION_DOT,MEAN_MOTION_DDOT
ONEWEB-0643,2023-029M,2026-06-11T14:06:00.944352,13.14502975,.0001692,87.8952,290.8465,121.5939,238.5356,0,U,55807,999,15865,.48595E-3,.193E-5,0
ONEWEB-0644,2023-029N,2026-06-11T15:13:58.047168,13.19724531,.0001615,87.9164,306.0848,107.5837,252.5472,0,U,55808,999,15817,-.30414E-4,.1E-7,0
ONEWEB-0645,2023-029P,2026-06-11T15:45:48.517056,13.19724208,.0001388,87.9164,306.0774,94.3391,265.7901,0,U,55809,999,15817,.23248E-3,.106E-5,0
ONEWEB-0646,2023-029Q,2026-06-11T16:10:50.873088,13.19725229,.0001668,87.9164,306.0741,105.6800,254.4517,0,U,55810,999,15816,.10674E-3,.56E-6,0
ONEWEB-0648,2023-029R,2026-06-11T15:09:55.048032,13.14502953,.0000975,87.8960,290.8107,108.9181,251.2055,0,U,55811,999,15866,-.74631E-3,-.264E-5,0
ONEWEB-0649,2023-029S,2026-06-11T09:30:31.129632,13.19725198,.0001571,87.9162,306.1271,97.9468,262.1843,0,U,55812,999,15816,.10585E-3,.55E-6,0
ONEWEB-0650,2023-029T,2026-06-11T16:40:23.043360,13.19724596,.0001401,87.9165,306.0703,111.8788,248.2494,0,U,55813,999,15817,-.71848E-4,-.16E-6,0
ONEWEB-0652,2023-029U,2026-06-11T09:13:41.581056,13.14504663,.000205,87.8956,290.8675,99.5220,260.6141,0,U,55814,999,15860,-.57294E-3,-.2E-5,0
ONEWEB-0653,2023-029V,2026-06-11T14:19:41.835072,13.14503093,.000189,87.8961,290.8229,97.2267,262.9077,0,U,55815,999,15866,.2139E-4,.21E-6,0
ONEWEB-0654,2023-029W,2026-06-11T14:12:51.092928,13.14503583,.0002174,87.8959,290.8200,93.6905,266.4473,0,U,55816,999,15868,.286E-3,.119E-5,0
ONEWEB-0656,2023-029X,2026-06-11T16:10:47.957088,13.20772961,.0002333,87.9197,275.5282,94.2236,265.9164,0,U,55817,999,16042,-.46385E-4,-.6E-7,0
ONEWEB-0657,2023-029Y,2026-06-11T16:33:35.327808,13.19724691,.0002454,87.9165,306.0699,105.8502,254.2901,0,U,55818,999,15818,-.99345E-4,-.27E-6,0
ONEWEB-0658,2023-029Z,2026-06-11T16:26:45.715776,13.19724445,.0001569,87.9172,306.0460,108.8205,251.3098,0,U,55819,999,15819,.1423E-4,.19E-6,0
ONEWEB-0660,2023-029AA,2026-06-11T17:20:06.186048,13.14503280,.0001599,87.8968,290.7869,95.1101,265.0211,0,U,55820,999,15868,.61273E-3,.24E-5,0
ONEWEB-0661,2023-029AB,2026-06-11T14:31:07.646304,13.14502523,.0001686,87.8951,290.8559,92.0314,268.1008,0,U,55821,999,15865,-.34647E-3,-.116E-5,0
ONEWEB-0662,2023-029AC,2026-06-11T15:21:21.763008,13.14502714,.0001589,87.8946,290.8553,95.1001,265.0310,0,U,55822,999,15870,.40434E-3,.163E-5,0
ONEWEB-0663,2023-029AD,2026-06-11T18:48:59.150016,13.20868790,.0001508,87.9193,275.5781,102.8480,257.2822,0,U,55823,999,16043,-.16562E-3,-.54E-6,0
ONEWEB-0664,2023-029AE,2026-06-11T14:02:18.193920,13.20770534,.0001892,87.9178,275.5995,85.8341,274.3008,0,U,55824,999,16040,.16499E-3,.8E-6,0
ONEWEB-0665,2023-029AF,2026-06-11T14:26:33.711648,13.14503010,.0001548,87.8951,290.8373,98.3025,261.8281,0,U,55825,999,15867,-.28116E-3,-.91E-6,0
ONEWEB-0666,2023-029AG,2026-06-11T17:30:47.513376,13.20770929,.0002606,87.9181,275.5604,108.4124,251.7293,0,U,55826,999,16043,.15172E-4,.19E-6,0
ONEWEB-0667,2023-029AH,2026-06-11T19:12:37.132992,13.20771291,.000181,87.9195,275.5037,96.7850,263.3489,0,U,55827,999,16043,.24439E-5,.14E-6,0
ONEWEB-0669,2023-029AJ,2026-06-11T19:05:20.400000,13.20771840,.0002339,87.9190,275.5163,89.2652,270.8749,0,U,55828,999,16043,-.52632E-4,-.8E-7,0
ONEWEB-0670,2023-029AK,2026-06-11T15:44:12.341760,13.14502723,.0001732,87.8949,290.8441,87.3928,272.7400,0,U,55829,999,15870,.64368E-3,.251E-5,0
ONEWEB-0671,2023-029AL,2026-06-11T16:19:55.295040,13.19724134,.0001698,87.9165,306.0731,94.6736,265.4591,0,U,55830,999,15817,.35248E-4,.27E-6,0
ONEWEB-0672,2023-029AM,2026-06-11T18:58:03.559008,13.20771802,.0002234,87.9191,275.5104,100.4674,259.6711,0,U,55831,999,16043,-.23595E-5,.12E-6,0
ONEWEB-0673,2023-029AN,2026-06-11T15:46:57.200736,13.19727029,.0001741,87.9171,306.0689,94.1708,265.9623,0,U,55832,999,15817,.20779E-3,.96E-6,0
ONEWEB-0674,2023-029AP,2026-06-11T14:58:31.472832,13.14504259,.0001788,87.8948,290.8273,86.6774,273.4561,0,U,55833,999,15868,-.2195E-3,-.69E-6,0
ONEWEB-0675,2023-029AQ,2026-06-11T16:08:33.906624,13.19724464,.0002046,87.9163,306.0761,105.0945,255.0414,0,U,55834,999,15819,.9555E-4,.51E-6,0
ONEWEB-0720,2023-029AR,2026-06-11T15:57:11.060640,13.19724617,.0001554,87.9164,306.0779,101.1067,259.0240,0,U,55835,999,15811,.19668E-3,.92E-6,0
ONEWEB-0537,2023-043A,2026-06-11T17:20:51.597024,13.16594074,.0002244,87.9100,229.8565,100.7141,259.4242,0,U,56046,999,15824,-.80299E-4,-.18E-6,0
